<?xml version="1.0" encoding="UTF-8"?>
<ndm xmlns:xsi="http://www.w3.org/2001/XMLSchema-instance" xsi:noNamespaceSchemaLocation="https://sanaregistry.org/r/ndmxml_unqualified/ndmxml-2.0.0-master-2.0.xsd">
<omm id="CCSDS_OMM_VERS" version="2.0">
<header><CREATION_DATE/><ORIGINATOR/></header><body><segment><metadata><OBJECT_NAME>QIANFAN-25</OBJECT_NAME><OBJECT_ID>2024-185G</OBJECT_ID><CENTER_NAME>EARTH</CENTER_NAME><REF_FRAME>TEME</REF_FRAME><TIME_SYSTEM>UTC</TIME_SYSTEM><MEAN_ELEMENT_THEORY>SGP4</MEAN_ELEMENT_THEORY></metadata><data><meanElements><EPOCH>2025-10-07T00:45:18.679680</EPOCH><MEAN_MOTION>14.05813298</MEAN_MOTION><ECCENTRICITY>.00098523</ECCENTRICITY><INCLINATION>88.9749</INCLINATION><RA_OF_ASC_NODE>85.7365</RA_OF_ASC_NODE><ARG_OF_PERICENTER>144.7096</ARG_OF_PERICENTER><MEAN_ANOMALY>215.4740</MEAN_ANOMALY></meanElements><tleParameters><EPHEMERIS_TYPE>0</EPHEMERIS_TYPE><CLASSIFICATION_TYPE>U</CLASSIFICATION_TYPE><NORAD_CAT_ID>61558</NORAD_CAT_ID><ELEMENT_SET_NO>999</ELEMENT_SET_NO><REV_AT_EPOCH>6013</REV_AT_EPOCH><BSTAR>.29467357E-3</BSTAR><MEAN_MOTION_DOT>.495E-5</MEAN_MOTION_DOT><MEAN_MOTION_DDOT>0</MEAN_MOTION_DDOT></tleParameters></data></segment></body></omm>
<omm id="CCSDS_OMM_VERS" version="2.0">
<header><CREATION_DATE/><ORIGINATOR/></header><body><segment><metadata><OBJECT_NAME>QIANFAN-26</OBJECT_NAME><OBJECT_ID>2024-185H</OBJECT_ID><CENTER_NAME>EARTH</CENTER_NAME><REF_FRAME>TEME</REF_FRAME><TIME_SYSTEM>UTC</TIME_SYSTEM><MEAN_ELEMENT_THEORY>SGP4</MEAN_ELEMENT_THEORY></metadata><data><meanElements><EPOCH>2025-10-07T00:09:25.175232</EPOCH><MEAN_MOTION>13.77756545</MEAN_MOTION><ECCENTRICITY>.00049178</ECCENTRICITY><INCLINATION>88.9749</INCLINATION><RA_OF_ASC_NODE>86.9518</RA_OF_ASC_NODE><ARG_OF_PERICENTER>194.3918</ARG_OF_PERICENTER><MEAN_ANOMALY>165.7109</MEAN_ANOMALY></meanElements><tleParameters><EPHEMERIS_TYPE>0</EPHEMERIS_TYPE><CLASSIFICATION_TYPE>U</CLASSIFICATION_TYPE><NORAD_CAT_ID>61559</NORAD_CAT_ID><ELEMENT_SET_NO>999</ELEMENT_SET_NO><REV_AT_EPOCH>5948</REV_AT_EPOCH><BSTAR>.32915091E-3</BSTAR><MEAN_MOTION_DOT>.342E-5</MEAN_MOTION_DOT><MEAN_MOTION_DDOT>0</MEAN_MOTION_DDOT></tleParameters></data></segment></body></omm>
<omm id="CCSDS_OMM_VERS" version="2.0">
<header><CREATION_DATE/><ORIGINATOR/></header><body><segment><metadata><OBJECT_NAME>QIANFAN-27</OBJECT_NAME><OBJECT_ID>2024-185J</OBJECT_ID><CENTER_NAME>EARTH</CENTER_NAME><REF_FRAME>TEME</REF_FRAME><TIME_SYSTEM>UTC</TIME_SYSTEM><MEAN_ELEMENT_THEORY>SGP4</MEAN_ELEMENT_THEORY></metadata><data><meanElements><EPOCH>2025-10-07T00:07:17.368032</EPOCH><MEAN_MOTION>14.27205104</MEAN_MOTION><ECCENTRICITY>.00093874</ECCENTRICITY><INCLINATION>88.9748</INCLINATION><RA_OF_ASC_NODE>84.7659</RA_OF_ASC_NODE><ARG_OF_PERICENTER>137.2975</ARG_OF_PERICENTER><MEAN_ANOMALY>222.8951</MEAN_ANOMALY></meanElements><tleParameters><EPHEMERIS_TYPE>0</EPHEMERIS_TYPE><CLASSIFICATION_TYPE>U</CLASSIFICATION_TYPE><NORAD_CAT_ID>61560</NORAD_CAT_ID><ELEMENT_SET_NO>999</ELEMENT_SET_NO><REV_AT_EPOCH>6064</REV_AT_EPOCH><BSTAR>.34379307E-3</BSTAR><MEAN_MOTION_DOT>.854E-5</MEAN_MOTION_DOT><MEAN_MOTION_DDOT>0</MEAN_MOTION_DDOT></tleParameters></data></segment></body></omm>
<omm id="CCSDS_OMM_VERS" version="2.0">
<header><CREATION_DATE/><ORIGINATOR/></header><body><segment><metadata><OBJECT_NAME>QIANFAN-28</OBJECT_NAME><OBJECT_ID>2024-185K</OBJECT_ID><CENTER_NAME>EARTH</CENTER_NAME><REF_FRAME>TEME</REF_FRAME><TIME_SYSTEM>UTC</TIME_SYSTEM><MEAN_ELEMENT_THEORY>SGP4</MEAN_ELEMENT_THEORY></metadata><data><meanElements><EPOCH>2025-10-07T00:26:02.272704</EPOCH><MEAN_MOTION>14.27823957</MEAN_MOTION><ECCENTRICITY>.00084718</ECCENTRICITY><INCLINATION>88.9764</INCLINATION><RA_OF_ASC_NODE>84.7624</RA_OF_ASC_NODE><ARG_OF_PERICENTER>136.5411</ARG_OF_PERICENTER><MEAN_ANOMALY>223.6453</MEAN_ANOMALY></meanElements><tleParameters><EPHEMERIS_TYPE>0</EPHEMERIS_TYPE><CLASSIFICATION_TYPE>U</CLASSIFICATION_TYPE><NORAD_CAT_ID>61561</NORAD_CAT_ID><ELEMENT_SET_NO>999</ELEMENT_SET_NO><REV_AT_EPOCH>6065</REV_AT_EPOCH><BSTAR>.52083876E-3</BSTAR><MEAN_MOTION_DOT>.1302E-4</MEAN_MOTION_DOT><MEAN_MOTION_DDOT>0</MEAN_MOTION_DDOT></tleParameters></data></segment></body></omm>
<omm id="CCSDS_OMM_VERS" version="2.0">
<header><CREATION_DATE/><ORIGINATOR/></header><body><segment><metadata><OBJECT_NAME>QIANFAN-29</OBJECT_NAME><OBJECT_ID>2024-185L</OBJECT_ID><CENTER_NAME>EARTH</CENTER_NAME><REF_FRAME>TEME</REF_FRAME><TIME_SYSTEM>UTC</TIME_SYSTEM><MEAN_ELEMENT_THEORY>SGP4</MEAN_ELEMENT_THEORY></metadata><data><meanElements><EPOCH>2025-10-07T00:11:05.329248</EPOCH><MEAN_MOTION>13.50976865</MEAN_MOTION><ECCENTRICITY>.00085425</ECCENTRICITY><INCLINATION>88.9726</INCLINATION><RA_OF_ASC_NODE>88.2053</RA_OF_ASC_NODE><ARG_OF_PERICENTER>239.2586</ARG_OF_PERICENTER><MEAN_ANOMALY>120.7724</MEAN_ANOMALY></meanElements><tleParameters><EPHEMERIS_TYPE>0</EPHEMERIS_TYPE><CLASSIFICATION_TYPE>U</CLASSIFICATION_TYPE><NORAD_CAT_ID>61562</NORAD_CAT_ID><ELEMENT_SET_NO>999</ELEMENT_SET_NO><REV_AT_EPOCH>5878</REV_AT_EPOCH><BSTAR>.34742402E-3</BSTAR><MEAN_MOTION_DOT>.236E-5</MEAN_MOTION_DOT><MEAN_MOTION_DDOT>0</MEAN_MOTION_DDOT></tleParameters></data></segment></body></omm>
<omm id="CCSDS_OMM_VERS" version="2.0">
<header><CREATION_DATE/><ORIGINATOR/></header><body><segment><metadata><OBJECT_NAME>QIANFAN-30</OBJECT_NAME><OBJECT_ID>2024-185M</OBJECT_ID><CENTER_NAME>EARTH</CENTER_NAME><REF_FRAME>TEME</REF_FRAME><TIME_SYSTEM>UTC</TIME_SYSTEM><MEAN_ELEMENT_THEORY>SGP4</MEAN_ELEMENT_THEORY></metadata><data><meanElements><EPOCH>2025-10-07T00:08:53.822400</EPOCH><MEAN_MOTION>13.49954459</MEAN_MOTION><ECCENTRICITY>.00063313</ECCENTRICITY><INCLINATION>88.9746</INCLINATION><RA_OF_ASC_NODE>87.7051</RA_OF_ASC_NODE><ARG_OF_PERICENTER>218.2460</ARG_OF_PERICENTER><MEAN_ANOMALY>141.8242</MEAN_ANOMALY></meanElements><tleParameters><EPHEMERIS_TYPE>0</EPHEMERIS_TYPE><CLASSIFICATION_TYPE>U</CLASSIFICATION_TYPE><NORAD_CAT_ID>61563</NORAD_CAT_ID><ELEMENT_SET_NO>999</ELEMENT_SET_NO><REV_AT_EPOCH>5906</REV_AT_EPOCH><BSTAR>.34885459E-3</BSTAR><MEAN_MOTION_DOT>.234E-5</MEAN_MOTION_DOT><MEAN_MOTION_DDOT>0</MEAN_MOTION_DDOT></tleParameters></data></segment></body></omm>
<omm id="CCSDS_OMM_VERS" version="2.0">
<header><CREATION_DATE/><ORIGINATOR/></header><body><segment><metadata><OBJECT_NAME>QIANFAN-31</OBJECT_NAME><OBJECT_ID>2024-185N</OBJECT_ID><CENTER_NAME>EARTH</CENTER_NAME><REF_FRAME>TEME</REF_FRAME><TIME_SYSTEM>UTC</TIME_SYSTEM><MEAN_ELEMENT_THEORY>SGP4</MEAN_ELEMENT_THEORY></metadata><data><meanElements><EPOCH>2025-10-06T23:56:50.116128</EPOCH><MEAN_MOTION>13.57927196</MEAN_MOTION><ECCENTRICITY>.00060156</ECCENTRICITY><INCLINATION>88.9731</INCLINATION><RA_OF_ASC_NODE>87.6136</RA_OF_ASC_NODE><ARG_OF_PERICENTER>213.3345</ARG_OF_PERICENTER><MEAN_ANOMALY>146.7432</MEAN_ANOMALY></meanElements><tleParameters><EPHEMERIS_TYPE>0</EPHEMERIS_TYPE><CLASSIFICATION_TYPE>U</CLASSIFICATION_TYPE><NORAD_CAT_ID>61564</NORAD_CAT_ID><ELEMENT_SET_NO>999</ELEMENT_SET_NO><REV_AT_EPOCH>5910</REV_AT_EPOCH><BSTAR>.32470816E-3</BSTAR><MEAN_MOTION_DOT>.246E-5</MEAN_MOTION_DOT><MEAN_MOTION_DDOT>0</MEAN_MOTION_DDOT></tleParameters></data></segment></body></omm>
<omm id="CCSDS_OMM_VERS" version="2.0">
<header><CREATION_DATE/><ORIGINATOR/></header><body><segment><metadata><OBJECT_NAME>QIANFAN-32</OBJECT_NAME><OBJECT_ID>2024-185P</OBJECT_ID><CENTER_NAME>EARTH</CENTER_NAME><REF_FRAME>TEME</REF_FRAME><TIME_SYSTEM>UTC</TIME_SYSTEM><MEAN_ELEMENT_THEORY>SGP4</MEAN_ELEMENT_THEORY></metadata><data><meanElements><EPOCH>2025-10-07T00:16:39.742176</EPOCH><MEAN_MOTION>13.50706035</MEAN_MOTION><ECCENTRICITY>.00076301</ECCENTRICITY><INCLINATION>88.9789</INCLINATION><RA_OF_ASC_NODE>87.8185</RA_OF_ASC_NODE><ARG_OF_PERICENTER>251.7569</ARG_OF_PERICENTER><MEAN_ANOMALY>108.2752</MEAN_ANOMALY></meanElements><tleParameters><EPHEMERIS_TYPE>0</EPHEMERIS_TYPE><CLASSIFICATION_TYPE>U</CLASSIFICATION_TYPE><NORAD_CAT_ID>61565</NORAD_CAT_ID><ELEMENT_SET_NO>999</ELEMENT_SET_NO><REV_AT_EPOCH>5903</REV_AT_EPOCH><BSTAR>.31907855E-3</BSTAR><MEAN_MOTION_DOT>.217E-5</MEAN_MOTION_DOT><MEAN_MOTION_DDOT>0</MEAN_MOTION_DDOT></tleParameters></data></segment></body></omm>

</ndm>
