QIANFAN-25              
1 61558U 24185G   25280.03146620  .00000495  00000+0  29467-3 0  9992
2 61558  88.9749  85.7365 0009852 144.7096 215.4740 14.05813298 60135
QIANFAN-26              
1 61559U 24185H   25280.00654138  .00000342  00000+0  32915-3 0  9991
2 61559  88.9749  86.9518 0004917 194.3918 165.7109 13.77756545 59481
QIANFAN-27              
1 61560U 24185J   25280.00506213  .00000854  00000+0  34379-3 0  9997
2 61560  88.9748  84.7659 0009387 137.2975 222.8951 14.27205104 60645
QIANFAN-28              
1 61561U 24185K   25280.01808186  .00001302  00000+0  52084-3 0  9995
2 61561  88.9764  84.7624 0008471 136.5411 223.6453 14.27823957 60655
QIANFAN-29              
1 61562U 24185L   25280.00770057  .00000236  00000+0  34742-3 0  9996
2 61562  88.9726  88.2053 0008542 239.2586 120.7724 13.50976865 58783
QIANFAN-30              
1 61563U 24185M   25280.00617850  .00000234  00000+0  34885-3 0  9994
2 61563  88.9746  87.7051 0006331 218.2460 141.8242 13.49954459 59064
QIANFAN-31              
1 61564U 24185N   25279.99780227  .00000246  00000+0  32471-3 0  9992
2 61564  88.9731  87.6136 0006015 213.3345 146.7432 13.57927196 59106
QIANFAN-32              
1 61565U 24185P   25280.01157109  .00000217  00000+0  31908-3 0  9997
2 61565  88.9789  87.8185 0007630 251.7569 108.2752 13.50706035 59034
